start=new Date('2021-11-03T00:00:00.000Z').valueOf();
sats=[{"INCLINATION":"53.0535","MEAN_MOTION_DOT":"0.00484872","OBJECT_NAME":"STARLINK-1023","OBJECT_ID":"2019-074R","EPHEMERIS_TYPE":"0","COUNTRY_CODE":"US","CLASSIFICATION_TYPE":"U","PERIOD":"91.181","BSTAR":"0.00249910000000","FILE":"3198350","REV_AT_EPOCH":"10991","CENTER_NAME":"EARTH","SITE":"AFETR","GP_ID":"188773293","TLE_LINE2":"2 44728  53.0535  79.7161 0004782  21.0379 339.0837 15.79279239109919","MEAN_MOTION_DDOT":"0.0000000000000","MEAN_ELEMENT_THEORY":"SGP4","MEAN_ANOMALY":"339.0837","LAUNCH_DATE":"2019-11-11","SEMIMAJOR_AXIS":"6710.619","ELEMENT_SET_NO":"999","ECCENTRICITY":"0.00047820","PERIAPSIS":"329.275","TLE_LINE1":"1 44728U 19074R   21306.81958770  .00484872  00000-0  24991-2 0  9993","OBJECT_TYPE":"PAYLOAD","TIME_SYSTEM":"UTC","EPOCH":"2021-11-02T19:40:12.377280","DECAY_DATE":null,"APOAPSIS":"335.693","NORAD_CAT_ID":"44728","MEAN_MOTION":"15.79279239","RCS_SIZE":"LARGE","RA_OF_ASC_NODE":"79.7161","ARG_OF_PERICENTER":"21.0379","REF_FRAME":"TEME"},{"RCS_SIZE":"LARGE","RA_OF_ASC_NODE":"132.5950","REF_FRAME":"TEME","ARG_OF_PERICENTER":"70.0260","MEAN_MOTION":"15.08017046","NORAD_CAT_ID":"44729","APOAPSIS":"543.518","DECAY_DATE":null,"OBJECT_TYPE":"PAYLOAD","TIME_SYSTEM":"UTC","EPOCH":"2021-11-02T15:04:13.855296","TLE_LINE1":"1 44729U 19074S   21306.62793814  .00003887  00000-0  26797-3 0  9999","SEMIMAJOR_AXIS":"6920.397","ECCENTRICITY":"0.00018150","ELEMENT_SET_NO":"999","PERIAPSIS":"541.006","MEAN_MOTION_DDOT":"0.0000000000000","TLE_LINE2":"2 44729  52.9995 132.5950 0001815  70.0260 290.0924 15.08017046109134","MEAN_ELEMENT_THEORY":"SGP4","MEAN_ANOMALY":"290.0924","LAUNCH_DATE":"2019-11-11","GP_ID":"188773044","SITE":"AFETR","FILE":"3198350","REV_AT_EPOCH":"10913","CENTER_NAME":"EARTH","PERIOD":"95.490","BSTAR":"0.00026797000000","CLASSIFICATION_TYPE":"U","COUNTRY_CODE":"US","MEAN_MOTION_DOT":"0.00003887","INCLINATION":"52.9995","OBJECT_ID":"2019-074S","OBJECT_NAME":"STARLINK-1024","EPHEMERIS_TYPE":"0"},{"CLASSIFICATION_TYPE":"U","PERIOD":"95.592","BSTAR":"0.00002463800000","MEAN_MOTION_DOT":"0.00000085","INCLINATION":"53.0530","OBJECT_NAME":"STARLINK-1026","OBJECT_ID":"2019-074U","EPHEMERIS_TYPE":"0","COUNTRY_CODE":"US","GP_ID":"188772292","FILE":"3198350","REV_AT_EPOCH":"10940","CENTER_NAME":"EARTH","SITE":"AFETR","TLE_LINE1":"1 44731U 19074U   21306.73963912  .00000085  00000-0  24638-4 0  9992","TIME_SYSTEM":"UTC","OBJECT_TYPE":"PAYLOAD","EPOCH":"2021-11-02T17:45:04.819968","MEAN_MOTION_DDOT":"0.0000000000000","TLE_LINE2":"2 44731  53.0530 115.2080 0001805  85.1935 274.9260 15.06397285109409","MEAN_ELEMENT_THEORY":"SGP4","MEAN_ANOMALY":"274.9260","LAUNCH_DATE":"2019-11-11","SEMIMAJOR_AXIS":"6925.357","ELEMENT_SET_NO":"999","ECCENTRICITY":"0.00018050","PERIAPSIS":"545.972","MEAN_MOTION":"15.06397285","RCS_SIZE":"LARGE","RA_OF_ASC_NODE":"115.2080","REF_FRAME":"TEME","ARG_OF_PERICENTER":"85.1935","DECAY_DATE":null,"NORAD_CAT_ID":"44731","APOAPSIS":"548.472"},{"APOAPSIS":"548.525","NORAD_CAT_ID":"44732","DECAY_DATE":null,"RCS_SIZE":"LARGE","RA_OF_ASC_NODE":"134.6729","ARG_OF_PERICENTER":"85.8080","REF_FRAME":"TEME","MEAN_MOTION":"15.06413578","SEMIMAJOR_AXIS":"6925.307","ELEMENT_SET_NO":"999","ECCENTRICITY":"0.00019540","PERIAPSIS":"545.819","MEAN_ELEMENT_THEORY":"SGP4","MEAN_ANOMALY":"274.3132","MEAN_MOTION_DDOT":"0.0000000000000","TLE_LINE2":"2 44732  53.0519 134.6729 0001954  85.8080 274.3132 15.06413578109142","LAUNCH_DATE":"2019-11-11","EPOCH":"2021-11-02T20:37:36.018624","OBJECT_TYPE":"PAYLOAD","TIME_SYSTEM":"UTC","TLE_LINE1":"1 44732U 19074V   21306.85944466  .00003768  00000-0  27160-3 0  9992","SITE":"AFETR","FILE":"3198350","CENTER_NAME":"EARTH","REV_AT_EPOCH":"10914","GP_ID":"188772542","COUNTRY_CODE":"US","MEAN_MOTION_DOT":"0.00003768","INCLINATION":"53.0519","EPHEMERIS_TYPE":"0","OBJECT_NAME":"STARLINK-1027","OBJECT_ID":"2019-074V","PERIOD":"95.591","BSTAR":"0.00027160000000","CLASSIFICATION_TYPE":"U"},{"TLE_LINE1":"1 44733U 19074W   21306.45950703  .00001230  00000-0  10147-3 0  9999","OBJECT_TYPE":"PAYLOAD","TIME_SYSTEM":"UTC","EPOCH":"2021-11-02T11:01:41.407392","TLE_LINE2":"2 44733  53.0546 116.4648 0001611  89.0443 271.0731 15.06393601109367","MEAN_MOTION_DDOT":"0.0000000000000","MEAN_ELEMENT_THEORY":"SGP4","MEAN_ANOMALY":"271.0731","LAUNCH_DATE":"2019-11-11","ELEMENT_SET_NO":"999","SEMIMAJOR_AXIS":"6925.368","ECCENTRICITY":"0.00016110","PERIAPSIS":"546.117","MEAN_MOTION":"15.06393601","RA_OF_ASC_NODE":"116.4648","RCS_SIZE":"LARGE","ARG_OF_PERICENTER":"89.0443","REF_FRAME":"TEME","DECAY_DATE":null,"APOAPSIS":"548.349","NORAD_CAT_ID":"44733","CLASSIFICATION_TYPE":"U","PERIOD":"95.593","BSTAR":"0.00010147000000","INCLINATION":"53.0546","MEAN_MOTION_DOT":"0.00001230","OBJECT_NAME":"STARLINK-1028","OBJECT_ID":"2019-074W","EPHEMERIS_TYPE":"0","COUNTRY_CODE":"US","GP_ID":"188736073","FILE":"3197731","CENTER_NAME":"EARTH","REV_AT_EPOCH":"10936","SITE":"AFETR"},{"FILE":"3198350","CENTER_NAME":"EARTH","REV_AT_EPOCH":"11048","SITE":"AFETR","GP_ID":"188773544","INCLINATION":"53.0020","MEAN_MOTION_DOT":"-0.00000446","EPHEMERIS_TYPE":"0","OBJECT_NAME":"STARLINK-1029","OBJECT_ID":"2019-074X","COUNTRY_CODE":"US","CLASSIFICATION_TYPE":"U","PERIOD":"95.644","BSTAR":"-0.00001140900000","DECAY_DATE":null,"APOAPSIS":"550.664","NORAD_CAT_ID":"44734","MEAN_MOTION":"15.05583859","RCS_SIZE":"LARGE","RA_OF_ASC_NODE":"35.8189","ARG_OF_PERICENTER":"85.5383","REF_FRAME":"TEME","MEAN_ANOMALY":"274.5761","MEAN_ELEMENT_THEORY":"SGP4","TLE_LINE2":"2 44734  53.0020  35.8189 0001368  85.5383 274.5761 15.05583859110483","MEAN_MOTION_DDOT":"0.0000000000000","LAUNCH_DATE":"2019-11-11","SEMIMAJOR_AXIS":"6927.851","ELEMENT_SET_NO":"999","ECCENTRICITY":"0.00013680","PERIAPSIS":"548.768","TLE_LINE1":"1 44734U 19074X   21306.60361181 -.00000446  00000-0 -11409-4 0  9996","EPOCH":"2021-11-02T14:29:12.060384","OBJECT_TYPE":"PAYLOAD","TIME_SYSTEM":"UTC"},{"FILE":"3198350","CENTER_NAME":"EARTH","REV_AT_EPOCH":"10911","SITE":"AFETR","GP_ID":"188771793","MEAN_MOTION_DOT":"0.00004044","INCLINATION":"53.0532","EPHEMERIS_TYPE":"0","OBJECT_NAME":"STARLINK-1030","OBJECT_ID":"2019-074Y","COUNTRY_CODE":"US","CLASSIFICATION_TYPE":"U","PERIOD":"95.592","BSTAR":"0.00029027000000","DECAY_DATE":null,"APOAPSIS":"548.451","NORAD_CAT_ID":"44735","MEAN_MOTION":"15.06399302","RA_OF_ASC_NODE":"135.5367","RCS_SIZE":"LARGE","ARG_OF_PERICENTER":"76.5758","REF_FRAME":"TEME","MEAN_ELEMENT_THEORY":"SGP4","MEAN_ANOMALY":"283.5430","TLE_LINE2":"2 44735  53.0532 135.5367 0001784  76.5758 283.5430 15.06399302109116","MEAN_MOTION_DDOT":"0.0000000000000","LAUNCH_DATE":"2019-11-11","SEMIMAJOR_AXIS":"6925.351","ELEMENT_SET_NO":"999","ECCENTRICITY":"0.00017840","PERIAPSIS":"545.980","TLE_LINE1":"1 44735U 19074Y   21306.66779335  .00004044  00000-0  29027-3 0  9997","EPOCH":"2021-11-02T16:01:37.345440","OBJECT_TYPE":"PAYLOAD","TIME_SYSTEM":"UTC"},{"SITE":"AFETR","REV_AT_EPOCH":"10915","CENTER_NAME":"EARTH","FILE":"3198350","GP_ID":"188772043","COUNTRY_CODE":"US","OBJECT_NAME":"STARLINK-1031","OBJECT_ID":"2019-074Z","EPHEMERIS_TYPE":"0","MEAN_MOTION_DOT":"-0.00000916","INCLINATION":"53.0528","BSTAR":"-0.00004257000000","PERIOD":"95.593","CLASSIFICATION_TYPE":"U","APOAPSIS":"548.453","NORAD_CAT_ID":"44736","DECAY_DATE":null,"ARG_OF_PERICENTER":"78.3523","REF_FRAME":"TEME","RA_OF_ASC_NODE":"134.5741","RCS_SIZE":"LARGE","MEAN_MOTION":"15.06392972","PERIAPSIS":"546.018","ELEMENT_SET_NO":"999","SEMIMAJOR_AXIS":"6925.370","ECCENTRICITY":"0.00017580","LAUNCH_DATE":"2019-11-11","TLE_LINE2":"2 44736  53.0528 134.5741 0001758  78.3523 281.7664 15.06392972109157","MEAN_MOTION_DDOT":"0.0000000000000","MEAN_ANOMALY":"281.7664","MEAN_ELEMENT_THEORY":"SGP4","TIME_SYSTEM":"UTC","OBJECT_TYPE":"PAYLOAD","EPOCH":"2021-11-02T21:09:25.818048","TLE_LINE1":"1 44736U 19074Z   21306.88154882 -.00000916  00000-0 -42570-4 0  9991"},{"SITE":"AFETR","FILE":"3197731","REV_AT_EPOCH":"10909","CENTER_NAME":"EARTH","GP_ID":"188735574","COUNTRY_CODE":"US","INCLINATION":"53.0535","MEAN_MOTION_DOT":"0.00001021","OBJECT_ID":"2019-074AA","OBJECT_NAME":"STARLINK-1032","EPHEMERIS_TYPE":"0","PERIOD":"95.592","BSTAR":"0.00008743100000","CLASSIFICATION_TYPE":"U","APOAPSIS":"548.413","NORAD_CAT_ID":"44737","DECAY_DATE":null,"RCS_SIZE":"LARGE","RA_OF_ASC_NODE":"136.3128","REF_FRAME":"TEME","ARG_OF_PERICENTER":"79.9133","MEAN_MOTION":"15.06394983","SEMIMAJOR_AXIS":"6925.364","ECCENTRICITY":"0.00017100","ELEMENT_SET_NO":"999","PERIAPSIS":"546.045","TLE_LINE2":"2 44737  53.0535 136.3128 0001710  79.9133 280.2049 15.06394983109095","MEAN_MOTION_DDOT":"0.0000000000000","MEAN_ELEMENT_THEORY":"SGP4","MEAN_ANOMALY":"280.2049","LAUNCH_DATE":"2019-11-11","TIME_SYSTEM":"UTC","OBJECT_TYPE":"PAYLOAD","EPOCH":"2021-11-02T11:52:06.628224","TLE_LINE1":"1 44737U 19074AA  21306.49452116  .00001021  00000-0  87431-4 0  9991"},{"PERIOD":"95.592","BSTAR":"0.00002215000000","CLASSIFICATION_TYPE":"U","COUNTRY_CODE":"US","MEAN_MOTION_DOT":"0.00000048","INCLINATION":"53.0528","OBJECT_NAME":"STARLINK-1033","OBJECT_ID":"2019-074AB","EPHEMERIS_TYPE":"0","GP_ID":"188773045","SITE":"AFETR","FILE":"3198350","CENTER_NAME":"EARTH","REV_AT_EPOCH":"10911","TIME_SYSTEM":"UTC","OBJECT_TYPE":"PAYLOAD","EPOCH":"2021-11-02T16:17:30.827328","TLE_LINE1":"1 44738U 19074AB  21306.67882902  .00000048  00000-0  22150-4 0  9997","ELEMENT_SET_NO":"999","SEMIMAJOR_AXIS":"6925.359","ECCENTRICITY":"0.00021120","PERIAPSIS":"545.761","TLE_LINE2":"2 44738  53.0528 135.4700 0002112  84.8753 275.2476 15.06396550109117","MEAN_MOTION_DDOT":"0.0000000000000","MEAN_ANOMALY":"275.2476","MEAN_ELEMENT_THEORY":"SGP4","LAUNCH_DATE":"2019-11-11","RA_OF_ASC_NODE":"135.4700","RCS_SIZE":"LARGE","REF_FRAME":"TEME","ARG_OF_PERICENTER":"84.8753","MEAN_MOTION":"15.06396550","APOAPSIS":"548.687","NORAD_CAT_ID":"44738","DECAY_DATE":null}];
